SAUDISAT 1C             
1 27607U 02058C   23019.34319988  .00002998  00000+0  42615-3 0  9995
2 27607  64.5565   1.0449 0079517 253.6211 105.6139 14.76625625 80458
SAUDISAT 2              
1 28371U 04025F   23019.34678395  .00000719  00000+0  17829-3 0  9998
2 28371  98.4094 341.8818 0025793 158.6357 201.5914 14.54709592984673
SAUDISAT 3              
1 31118U 07012B   23019.30867137  .00000805  00000+0  14389-3 0  9994
2 31118  97.9968 326.4442 0014052 225.1118 134.8948 14.69475972844851
PISAT                   
1 41784U 16059B   23018.83759405  .00001937  00000+0  37388-3 0  9991
2 41784  97.8900  58.5192 0030982 206.0362 153.9284 14.64230371337208
FLYING LAPTOP           
1 42831U 17042G   23018.74310254  .00003756  00000+0  37166-3 0  9998
2 42831  97.4000 225.4539 0014034  13.9501 346.2085 14.92357367300199
SALSAT                  
1 46495U 20068K   23018.84190516  .00007846  00000+0  54397-3 0  9997
2 46495  97.7544 325.6342 0014114 267.2109  92.7502 15.05815215126589
